      2.10          N: GNSS NAV DATA                        RINEX VERSION / TYPE
fic2rin                                 02/22/2021 00:17:22 PGM / RUN BY / DATE
                                                            END OF HEADER
 5 21  2 21 22  0  0.0-3.433274105191e-05-1.023181539495e-12 0.000000000000e+00
    8.500000000000e+01-6.390625000000e+01 4.415898225600e-09 2.583569934138e+00
   -3.362074494362e-06 5.999587825499e-03 8.681789040565e-06 5.153825656891e+03
    7.920000000000e+04 6.891787052155e-08-8.048516501018e-01-1.043081283569e-07
    9.553790637614e-01 2.107500000000e+02 8.821066700492e-01-7.873185092618e-09
    1.539349834385e-10 1.000000000000e+00 2.146000000000e+03 0.000000000000e+00
    2.400000000000e+00 0.000000000000e+00-1.117587089539e-08 8.500000000000e+01
    7.200000000000e+04 4.000000000000e+00
 4 21  2 21 22  0  0.0-1.818174496293e-04-2.614797267597e-12 0.000000000000e+00
    3.200000000000e+01 4.125000000000e+00 4.613049294877e-09 1.480282865666e+00
    2.551823854446e-07 1.131030148827e-03 7.621943950653e-06 5.153582801819e+03
    7.920000000000e+04-4.470348358154e-08 3.105427463690e-01 9.313225746155e-09
    9.606565802311e-01 2.325625000000e+02-2.992236269280e+00-7.934259065166e-09
    2.514390448740e-10 1.000000000000e+00 2.146000000000e+03 0.000000000000e+00
    2.400000000000e+00 0.000000000000e+00-4.190951585770e-09 8.000000000000e+02
    7.200000000000e+04 4.000000000000e+00
12 21  2 21 22  0  0.0-4.362780600786e-06-5.229594535194e-12 0.000000000000e+00
    3.800000000000e+01 6.528125000000e+01 4.198389165475e-09-1.501482650848e+00
    3.600493073463e-06 8.416178519838e-03 7.981434464455e-06 5.153794403076e+03
    7.920000000000e+04 1.452863216400e-07 2.443250419050e+00 1.136213541031e-07
    9.748123578075e-01 2.343750000000e+02 1.175749226469e+00-7.782824185867e-09
   -7.214586230761e-11 1.000000000000e+00 2.146000000000e+03 0.000000000000e+00
    2.400000000000e+00 0.000000000000e+00-1.257285475731e-08 3.800000000000e+01
    7.200000000000e+04 4.000000000000e+00
10 21  2 21 22  0  0.0-6.650481373072e-05-8.071765478235e-12 0.000000000000e+00
    1.900000000000e+01-6.309375000000e+01 4.023024717985e-09-2.262656680001e+00
   -3.352761268616e-06 6.485358811915e-03 9.549781680107e-06 5.153674770355e+03
    7.920000000000e+04-8.568167686462e-08-7.721959085105e-01-5.029141902924e-08
    9.683570796393e-01 1.993750000000e+02-2.587981635709e+00-7.638889618986e-09
    2.607251459631e-10 1.000000000000e+00 2.146000000000e+03 0.000000000000e+00
    2.400000000000e+00 0.000000000000e+00 2.328306436539e-09 1.900000000000e+01
    7.200000000000e+04 4.000000000000e+00
 9 21  2 21 22  0  0.0-3.250469453633e-04-3.410605131648e-12 0.000000000000e+00
    6.600000000000e+01 3.062500000000e+00 4.715196406857e-09 2.421707937993e+00
    2.272427082062e-07 1.923500443809e-03 7.584691047668e-06 5.153556873322e+03
    7.920000000000e+04 0.000000000000e+00 2.604865612137e-01 5.029141902924e-08
    9.535029459335e-01 2.285937500000e+02 1.817398341296e+00-7.958188633357e-09
    3.000124967247e-10 1.000000000000e+00 2.146000000000e+03 0.000000000000e+00
    2.400000000000e+00 0.000000000000e+00 1.396983861923e-09 6.600000000000e+01
    7.200000000000e+04 4.000000000000e+00
 8 21  2 21 22  0  0.0-1.116562634706e-05-1.364242052659e-12 0.000000000000e+00
    7.200000000000e+01 5.878125000000e+01 4.554475426468e-09 2.002381457785e+00
    3.235414624214e-06 6.217414396815e-03 4.008412361145e-06 5.153560632706e+03
    7.920000000000e+04-3.911554813385e-08-2.881369145528e+00 1.620501279831e-07
    9.683539489946e-01 3.078750000000e+02-2.310969934317e-02-8.253915237271e-09
    1.785788670980e-11 1.000000000000e+00 2.146000000000e+03 0.000000000000e+00
    3.400000000000e+00 0.000000000000e+00 5.122274160385e-09 7.200000000000e+01
    7.200000000000e+04 4.000000000000e+00
13 21  2 21 22  0  0.0 9.988481178880e-05 4.320099833421e-12 0.000000000000e+00
    6.400000000000e+01 5.156250000000e+00 4.509116394226e-09 1.335638177686e+00
    2.160668373108e-07 4.908493836410e-03 7.165595889091e-06 5.153676248550e+03
    7.920000000000e+04-9.126961231232e-08 4.075812697845e-01 3.539025783539e-08
    9.683125308579e-01 2.439062500000e+02 1.021504336087e+00-8.003547665600e-09
    2.428672592533e-10 1.000000000000e+00 2.146000000000e+03 0.000000000000e+00
    2.400000000000e+00 0.000000000000e+00-1.117587089539e-08 6.400000000000e+01
    7.200000000000e+04 4.000000000000e+00
 7 21  2 21 22  0  0.0 6.685499101877e-05 1.307398633799e-11 0.000000000000e+00
    3.900000000000e+01 1.390625000000e+01 4.960563770249e-09-8.366235916793e-01
    9.685754776001e-07 1.446294377092e-02 7.336959242821e-06 5.153595399857e+03
    7.920000000000e+04 1.750886440277e-07 1.333394655297e+00 2.477318048477e-07
    9.516664570936e-01 2.317500000000e+02-2.351747115364e+00-8.246414924853e-09
   -2.292952653539e-10 1.000000000000e+00 2.146000000000e+03 0.000000000000e+00
    2.400000000000e+00 0.000000000000e+00-1.117587089539e-08 3.900000000000e+01
    7.200000000000e+04 4.000000000000e+00
11 21  2 21 22  0  0.0-1.809326931834e-05 1.057287590811e-11 0.000000000000e+00
    7.500000000000e+01-2.418750000000e+01 5.885245144083e-09-8.702975915480e-01
   -1.132488250732e-06 1.531903992873e-02 2.460554242134e-06 5.154074115753e+03
    7.920000000000e+04-1.806765794754e-07-2.300382244657e+00-6.705522537231e-08
    9.141848003807e-01 3.071875000000e+02 2.081251650474e+00-9.181811030713e-09
    4.964492505326e-11 1.000000000000e+00 2.146000000000e+03 0.000000000000e+00
    2.400000000000e+00 6.300000000000e+01-1.257285475731e-08 7.500000000000e+01
    7.200000000000e+04 4.000000000000e+00
27 21  2 21 22  0  0.0-8.086720481515e-05-7.389644451905e-12 0.000000000000e+00
    1.100000000000e+01 5.050000000000e+01 4.331966158064e-09 1.968464392615e+00
    2.596527338028e-06 9.099805960432e-03 4.203990101814e-06 5.153681034088e+03
    7.920000000000e+04-2.682209014893e-07-2.864909906883e+00 4.470348358154e-08
    9.768927984776e-01 3.094687500000e+02 5.774548036647e-01-8.152125283026e-09
    4.821629411647e-11 1.000000000000e+00 2.146000000000e+03 0.000000000000e+00
    2.400000000000e+00 0.000000000000e+00 1.862645149231e-09 1.100000000000e+01
    7.200000000000e+04 4.000000000000e+00
16 21  2 21 22  0  0.0-2.836310304701e-04-5.684341886081e-12 0.000000000000e+00
    2.300000000000e+01 8.465625000000e+01 4.068383750228e-09 2.883744533889e+00
    4.228204488754e-06 1.220105797984e-02 8.473172783852e-06 5.153660194397e+03
    7.920000000000e+04-6.705522537231e-08 2.462036806333e+00-1.583248376846e-07
    9.749434338045e-01 2.247812500000e+02 6.554828134331e-01-7.607459738377e-09
   -1.110760553350e-10 1.000000000000e+00 2.146000000000e+03 0.000000000000e+00
    2.400000000000e+00 0.000000000000e+00-1.024454832077e-08 2.300000000000e+01
    7.200000000000e+04 4.000000000000e+00
30 21  2 21 22  0  0.0-3.882735036314e-04-5.684341886081e-12 0.000000000000e+00
    2.700000000000e+01 9.781250000000e+00 5.223431862618e-09-9.010467763750e-01
    4.880130290985e-07 4.877779632807e-03 7.180497050285e-06 5.153737899780e+03
    7.920000000000e+04 9.313225746155e-08 1.351988680555e+00-4.097819328308e-08
    9.368977036757e-01 2.247812500000e+02-2.844940084705e+00-8.306774581933e-09
   -2.121516941125e-10 1.000000000000e+00 2.146000000000e+03 0.000000000000e+00
    2.400000000000e+00 0.000000000000e+00 3.725290298462e-09 2.700000000000e+01
    7.200000000000e+04 4.000000000000e+00
15 21  2 21 22  0  0.0-1.678233966231e-04 2.614797267597e-12 0.000000000000e+00
    1.500000000000e+01 4.687500000000e-01 5.389510209019e-09 9.972866006471e-01
    9.685754776001e-08 1.304218766745e-02 7.852911949158e-06 5.153565988541e+03
    7.920000000000e+04-1.639127731323e-07 1.639587454256e-01 6.705522537231e-08
    9.291587222075e-01 2.146250000000e+02 9.673713566599e-01-8.559999415478e-09
    1.850077063136e-10 1.000000000000e+00 2.146000000000e+03 0.000000000000e+00
    2.400000000000e+00 0.000000000000e+00-1.071020960808e-08 1.500000000000e+01
    7.200000000000e+04 4.000000000000e+00
20 21  2 21 22  0  0.0 5.245781503618e-04-2.273736754432e-13 0.000000000000e+00
    1.200000000000e+01-6.650000000000e+01 4.812700468292e-09-8.314941210563e-01
   -3.537163138390e-06 5.852330359630e-03 8.568167686462e-06 5.153675266266e+03
    7.920000000000e+04-5.029141902924e-08-9.119514672162e-01-2.477318048477e-07
    9.370977899072e-01 2.049687500000e+02 2.861518020134e+00-8.124624137493e-09
    1.110760553350e-10 1.000000000000e+00 2.146000000000e+03 0.000000000000e+00
    2.400000000000e+00 0.000000000000e+00-8.381903171539e-09 1.200000000000e+01
    7.200000000000e+04 4.000000000000e+00
31 21  2 21 22  0  0.0-1.014913432300e-04-2.273736754432e-12 0.000000000000e+00
    1.010000000000e+02 1.828125000000e+01 4.786270795962e-09-1.332685858321e+00
    7.115304470062e-07 9.968286496587e-03 7.083639502525e-06 5.153738695145e+03
    7.920000000000e+04 1.005828380585e-07 1.350066959182e+00-1.210719347000e-07
    9.560014944424e-01 2.345937500000e+02 2.491174333810e-01-8.043906489564e-09
   -7.214586230761e-11 1.000000000000e+00 2.146000000000e+03 0.000000000000e+00
    3.400000000000e+00 0.000000000000e+00-1.303851604462e-08 1.010000000000e+02
    7.200000000000e+04 4.000000000000e+00
29 21  2 21 22  0  0.0-2.992800436914e-04-7.048583938740e-12 0.000000000000e+00
    1.090000000000e+02 3.990625000000e+01 4.088741741077e-09 2.090217789069e+00
    2.130866050720e-06 1.527927233838e-03 4.054978489876e-06 5.153684087753e+03
    7.920000000000e+04 5.215406417847e-08-2.792563171659e+00-8.381903171539e-08
    9.847965293912e-01 3.098750000000e+02 2.144057933259e+00-8.009976504816e-09
   -1.071473202588e-11 1.000000000000e+00 2.146000000000e+03 0.000000000000e+00
    2.400000000000e+00 0.000000000000e+00-1.024454832077e-08 1.090000000000e+02
    7.200000000000e+04 4.000000000000e+00
